DIRECTV 11              
1 32729U 08013A   24020.61611031 -.00000121  00000+0  00000+0 0  9995
2 32729   0.0189  69.2000 0000896  72.2954 100.5958  1.00267945 36788
INTELSAT 25 (IS-25)     
1 33153U 08034A   24020.45469816 -.00000220  00000+0  00000+0 0  9994
2 33153   0.4344  90.8423 0003280 214.0538 306.6087  1.00271382 56885
GALAXY 19 (G-19)        
1 33376U 08045A   24020.62042734 -.00000134  00000+0  00000+0 0  9992
2 33376   0.0323 278.3017 0002948  18.1112 309.4103  1.00270162 56096
FM-5                    
1 35493U 09034A   24020.44382030 -.00000195  00000+0  00000+0 0  9996
2 35493   0.0150   8.7024 0001080 197.2395 346.9883  1.00272175 37835
INTELSAT 14 (IS-14)     
1 36097U 09064A   24020.38038071 -.00000269  00000+0  00000+0 0  9998
2 36097   0.0110 354.4575 0002628 314.8364 261.8612  1.00269163 51795
INTELSAT 15 (IS-15)     
1 36106U 09067A   24020.54204378 -.00000181  00000+0  00000+0 0  9998
2 36106   0.0140  86.1070 0002478 208.6692 104.9114  1.00271260 32418
DIRECTV 12              
1 36131U 09075A   24020.61347649 -.00000099  00000+0  00000+0 0  9990
2 36131   0.0197 145.9532 0000703 278.5645 173.0699  1.00274905 37754
INTELSAT 16 (IS-16)     
1 36397U 10006A   24020.44643579 -.00000240  00000+0  00000+0 0  9990
2 36397   0.0161  72.8240 0002263 226.4871 264.5036  1.00271604 50848
XM-5                    
1 37185U 10053A   24020.42467508 -.00000018  00000+0  00000+0 0  9995
2 37185   0.0351 270.6468 0001145 273.6803 332.6368  1.00270739 48673
INTELSAT 17 (IS-17)     
1 37238U 10065B   24020.47410424  .00000003  00000+0  00000+0 0  9990
2 37238   0.0091  33.7328 0002518 280.6800  41.5938  1.00271590 44420
INTELSAT 22 (IS-22)     
1 38098U 12011A   24020.47532255 -.00000054  00000+0  00000+0 0  9992
2 38098   0.0178  57.5502 0002656 239.0062  65.9962  1.00271049 43009
INTELSAT 19 (IS-19)     
1 38356U 12030A   24020.64172421 -.00000053  00000+0  00000+0 0  9993
2 38356   0.0172  65.9666 0003354 236.7430 213.8013  1.00271428 41632
INTELSAT 20 (IS-20)     
1 38740U 12043A   24020.47462637 -.00000020  00000+0  00000+0 0  9990
2 38740   0.0167 112.7927 0002444  76.8483 169.0373  1.00271384 41939
INTELSAT 21 (IS-21)     
1 38749U 12045A   24020.45618677 -.00000280  00000+0  00000+0 0  9994
2 38749   0.0132 300.3546 0002538 350.0230 295.1642  1.00272516 41717
INTELSAT 23 (IS-23)     
1 38867U 12057A   24020.45043403 -.00000280  00000+0  00000+0 0  9997
2 38867   0.0332 172.0272 0000432 166.7607 249.6919  1.00271906 41130
FM-6                    
1 39360U 13058A   24020.60066468 -.00000012  00000+0  00000+0 0  9994
2 39360   0.0040   1.2955 0000498 188.7123  29.5325  1.00270363 37255
INTELSAT 30 (IS-30)     
1 40271U 14062A   24019.34909826 -.00000145  00000+0  00000+0 0  9993
2 40271   0.0090  40.3883 0000984 317.8485 150.5793  1.00271487 33778
DIRECTV 14              
1 40333U 14078B   24020.61610964 -.00000121  00000+0  00000+0 0  9997
2 40333   0.0330 291.1304 0000432 297.8132  13.0929  1.00271002 33252
DIRECTV 15              
1 40663U 15026A   24020.13850740 -.00000098  00000+0  00000+0 0  9995
2 40663   0.0153  81.4037 0000532 137.2120 207.3737  1.00272612 31654
SKY MEXICO-1            
1 40664U 15026B   24020.23044045 -.00000230  00000+0  00000+0 0  9998
2 40664   0.0160  82.5311 0002371 222.6398 178.1153  1.00271671 31649
INTELSAT 34 (IS-34)     
1 40874U 15039A   24020.02022744 -.00000280  00000+0  00000+0 0  9999
2 40874   0.0140  23.3188 0000643 222.9864 184.3628  1.00274521 30806
INTELSAT 31 (IS-31)     
1 41581U 16035A   24018.57989340 -.00000145  00000+0  00000+0 0  9993
2 41581   0.0129 103.6330 0001889  83.3794  44.1478  1.00269990 27866
INTELSAT 33E (IS-33E)   
1 41748U 16053B   24020.47288590  .00000053  00000+0  00000+0 0  9996
2 41748   0.0124  76.0931 0002026 215.1808  58.2924  1.00273402 27439
INTELSAT 32E (IS-32E)   
1 41945U 17007B   24020.23748931 -.00000264  00000+0  00000+0 0  9994
2 41945   0.0163  71.9859 0000486 146.0700 303.3544  1.00274942 25413
INTELSAT 37E (IS-37E)   
1 42950U 17059A   24020.38577612 -.00000136  00000+0  00000+0 0  9998
2 42950   0.0150  78.2185 0002875 216.8323 305.0632  1.00272760 23252
AZERSPACE 2 (IS-38)     
1 43632U 18074A   24020.46992715  .00000141  00000+0  00000+0 0  9993
2 43632   0.0167  69.9159 0001713 231.7450  31.9397  1.00270916 19634
